H1 CPF  1  DGF 2022 01 24 17  5241 larets     NONE      
H2   304206 5557    27944 2022 01 19 00 00 00 2022 01 26 00 00 00    30 1 1  0 0 0
H5  0.0650
H9
10 0 59601  50400.000000  0      -6632762.888        287991.449       2377194.145
10 0 59601  50430.000000  0      -6551733.832        333015.447       2585933.043
10 0 59601  50460.000000  0      -6463834.934        377330.665       2792018.106
10 0 59601  50490.000000  0      -6369159.147        420862.109       2995237.907
10 0 59601  50520.000000  0      -6267806.731        463536.016       3195384.007
10 0 59601  50550.000000  0      -6159885.134        505279.960       3392251.177
10 0 59601  50580.000000  0      -6045508.872        546022.958       3585637.613
10 0 59601  50610.000000  0      -5924799.396        585695.574       3775345.144
10 0 59601  50640.000000  0      -5797884.957        624230.022       3961179.444
10 0 59601  50670.000000  0      -5664900.456        661560.261       4142950.232
10 0 59601  50700.000000  0      -5525987.290        697622.098       4320471.470
10 0 59601  50730.000000  0      -5381293.190        732353.274       4493561.556
10 0 59601  50760.000000  0      -5230972.053        765693.561       4662043.507
10 0 59601  50790.000000  0      -5075183.766        797584.847       4825745.141
10 0 59601  50820.000000  0      -4914094.027        827971.220       4984499.251
10 0 59601  50850.000000  0      -4747874.158        856799.050       5138143.772
10 0 59601  50880.000000  0      -4576700.917        884017.068       5286521.949
10 0 59601  50910.000000  0      -4400756.296        909576.441       5429482.491
10 0 59601  50940.000000  0      -4220227.324        933430.843       5566879.730
10 0 59601  50970.000000  0      -4035305.849        955536.522       5698573.762
10 0 59601  51000.000000  0      -3846188.332        975852.364       5824430.588
10 0 59601  51030.000000  0      -3653075.623        994339.952       5944322.243
10 0 59601  51060.000000  0      -3456172.744       1010963.623       6058126.925
10 0 59601  51090.000000  0      -3255688.664       1025690.516       6165729.114
10 0 59601  51120.000000  0      -3051836.065       1038490.628       6267019.685
10 0 59601  51150.000000  0      -2844831.113       1049336.856       6361896.016
10 0 59601  51180.000000  0      -2634893.215       1058205.037       6450262.085
10 0 59601  51210.000000  0      -2422244.780       1065073.991       6532028.557
10 0 59601  51240.000000  0      -2207110.980       1069925.545       6607112.872
10 0 59601  51270.000000  0      -1989719.501       1072744.566       6675439.317
10 0 59601  51300.000000  0      -1770300.303       1073518.985       6736939.096
10 0 59601  51330.000000  0      -1549085.369       1072239.815       6791550.392
10 0 59601  51360.000000  0      -1326308.462       1068901.167       6839218.422
10 0 59601  51390.000000  0      -1102204.875       1063500.266       6879895.488
10 0 59601  51420.000000  0       -877011.180       1056037.454       6913541.021
10 0 59601  51450.000000  0       -650964.975       1046516.197       6940121.614
10 0 59601  51480.000000  0       -424304.636       1034943.081       6959611.052
10 0 59601  51510.000000  0       -197269.060       1021327.808       6971990.332
10 0 59601  51540.000000  0         29902.581       1005683.187       6977247.680
10 0 59601  51570.000000  0        256971.096        988025.122       6975378.561
10 0 59601  51600.000000  0        483697.529        968372.597       6966385.674
10 0 59601  51630.000000  0        709843.405        946747.650       6950278.954
10 0 59601  51660.000000  0        935170.988        923175.353       6927075.552
10 0 59601  51690.000000  0       1159443.523        897683.779       6896799.821
10 0 59601  51720.000000  0       1382425.491        870303.971       6859483.286
10 0 59601  51750.000000  0       1603882.852        841069.902       6815164.613
10 0 59601  51780.000000  0       1823583.293        810018.436       6763889.567
10 0 59601  51810.000000  0       2041296.466        777189.283       6705710.971
10 0 59601  51840.000000  0       2256794.238        742624.947       6640688.648
10 0 59601  51870.000000  0       2469850.925        706370.678       6568889.366
10 0 59601  51900.000000  0       2680243.537        668474.413       6490386.772
10 0 59601  51930.000000  0       2887752.012        628986.711       6405261.314
10 0 59601  51960.000000  0       3092159.445        587960.697       6313600.158
10 0 59601  51990.000000  0       3293252.319        545451.988       6215497.103
10 0 59601  52020.000000  0       3490820.725        501518.625       6111052.489
10 0 59601  52050.000000  0       3684658.586        456220.999       6000373.095
10 0 59601  52080.000000  0       3874563.877        409621.775       5883572.037
10 0 59601  52110.000000  0       4060338.835        361785.802       5760768.652
10 0 59601  52140.000000  0       4241790.172        312780.037       5632088.379
10 0 59601  52170.000000  0       4418729.273        262673.453       5497662.634
10 0 59601  52200.000000  0       4590972.402        211536.949       5357628.682
10 0 59601  52230.000000  0       4758340.895        159443.256       5212129.497
10 0 59601  52260.000000  0       4920661.351        106466.839       5061313.623
10 0 59601  52290.000000  0       5077765.819         52683.802       4905335.019
10 0 59601  52320.000000  0       5229491.975         -1828.217       4744352.907
10 0 59601  52350.000000  0       5375683.298        -56990.149       4578531.612
10 0 59601  52380.000000  0       5516189.233       -112721.599       4408040.397
10 0 59601  52410.000000  0       5650865.357       -168940.949       4233053.287
10 0 59601  52440.000000  0       5779573.535       -225565.475       4053748.897
10 0 59601  52470.000000  0       5902182.065       -282511.456       3870310.243
10 0 59601  52500.000000  0       6018565.816       -339694.289       3682924.561
10 0 59601  52530.000000  0       6128606.368       -397028.606       3491783.115
10 0 59601  52560.000000  0       6232192.138       -454428.387       3297080.996
10 0 59601  52590.000000  0       6329218.497       -511807.078       3099016.921
10 0 59601  52620.000000  0       6419587.876       -569077.714       2897793.026
10 0 59601  52650.000000  0       6503209.870       -626153.035       2693614.658
10 0 59601  52680.000000  0       6580001.326       -682945.613       2486690.164
10 0 59601  52710.000000  0       6649886.435       -739367.967       2277230.680
10 0 59601  52740.000000  0       6712796.808       -795332.690       2065449.909
10 0 59601  52770.000000  0       6768671.549       -850752.569       1851563.903
10 0 59601  52800.000000  0       6817457.316       -905540.706       1635790.835
10 0 59601  52830.000000  0       6859108.371       -959610.643       1418350.778
10 0 59601  52860.000000  0       6893586.630      -1012876.482       1199465.472
10 0 59601  52890.000000  0       6920861.698      -1065253.005        979358.098
10 0 59601  52920.000000  0       6940910.900      -1116655.797        758253.041
10 0 59601  52950.000000  0       6953719.298      -1167001.367        536375.654
10 0 59601  52980.000000  0       6959279.697      -1216207.269        313952.019
10 0 59601  53010.000000  0       6957592.641      -1264192.218         91208.712
10 0 59601  53040.000000  0       6948666.399      -1310876.204       -131627.433
10 0 59601  53070.000000  0       6932516.948      -1356180.609       -354329.553
10 0 59601  53100.000000  0       6909167.948      -1400028.320       -576670.992
10 0 59601  53130.000000  0       6878650.709      -1442343.836       -798425.538
10 0 59601  53160.000000  0       6841004.144      -1483053.386      -1019367.656
10 0 59601  53190.000000  0       6796274.719      -1522085.028      -1239272.725
10 0 59601  53220.000000  0       6744516.386      -1559368.762      -1457917.271
10 0 59601  53250.000000  0       6685790.513      -1594836.624      -1675079.191
10 0 59601  53280.000000  0       6620165.805      -1628422.791      -1890537.988
10 0 59601  53310.000000  0       6547718.217      -1660063.676      -2104074.990
10 0 59601  53340.000000  0       6468530.857      -1689698.025      -2315473.574
10 0 59601  53370.000000  0       6382693.889      -1717267.003      -2524519.388
10 0 59601  53400.000000  0       6290304.419      -1742714.291      -2731000.566
10 0 59601  53430.000000  0       6191466.376      -1765986.160      -2934707.945
10 0 59601  53460.000000  0       6086290.389      -1787031.563      -3135435.272
10 0 59601  53490.000000  0       5974893.658      -1805802.206      -3332979.409
10 0 59601  53520.000000  0       5857399.810      -1822252.623      -3527140.543
10 0 59601  53550.000000  0       5733938.762      -1836340.250      -3717722.375
10 0 59601  53580.000000  0       5604646.562      -1848025.491      -3904532.325
10 0 59601  53610.000000  0       5469665.239      -1857271.777      -4087381.713
10 0 59601  53640.000000  0       5329142.635      -1864045.631      -4266085.950
10 0 59601  53670.000000  0       5183232.242      -1868316.724      -4440464.721
10 0 59601  53700.000000  0       5032093.021      -1870057.922      -4610342.154
10 0 59601  53730.000000  0       4875889.228      -1869245.341      -4775546.999
10 0 59601  53760.000000  0       4714790.224      -1865858.388      -4935912.792
10 0 59601  53790.000000  0       4548970.288      -1859879.799      -5091278.012
10 0 59601  53820.000000  0       4378608.422      -1851295.681      -5241486.238
10 0 59601  53850.000000  0       4203888.151      -1840095.539      -5386386.296
10 0 59601  53880.000000  0       4024997.324      -1826272.303      -5525832.402
10 0 59601  53910.000000  0       3842127.907      -1809822.353      -5659684.298
10 0 59601  53940.000000  0       3655475.780      -1790745.539      -5787807.386
10 0 59601  53970.000000  0       3465240.520      -1769045.193      -5910072.851
99
